{
    "links": {
        "self": "http://www.neowsapp.com/rest/v1/neo/3261769?api_key=iIulBulltgU6a56xZRHN4H3l9WmuAYTsLGpBGhQ2"
    },
    "id": "3261769",
    "neo_reference_id": "3261769",
    "name": "(2004 VZ14)",
    "designation": "2004 VZ14",
    "nasa_jpl_url": "http://ssd.jpl.nasa.gov/sbdb.cgi?sstr=3261769",
    "absolute_magnitude_h": 25.3,
    "estimated_diameter": {
        "kilometers": {
            "estimated_diameter_min": 0.0231502122,
            "estimated_diameter_max": 0.0517654482
        },
        "meters": {
            "estimated_diameter_min": 23.150212221,
            "estimated_diameter_max": 51.7654482198
        },
        "miles": {
            "estimated_diameter_min": 0.0143848705,
            "estimated_diameter_max": 0.0321655483
        },
        "feet": {
            "estimated_diameter_min": 75.9521422633,
            "estimated_diameter_max": 169.8341531374
        }
    },
    "is_potentially_hazardous_asteroid": false,
    "close_approach_data": [
        {
            "close_approach_date": "1910-10-18",
            "close_approach_date_full": "1910-Oct-18 07:44",
            "epoch_date_close_approach": -1868372160000,
            "relative_velocity": {
                "kilometers_per_second": "11.6055277579",
                "kilometers_per_hour": "41779.8999284011",
                "miles_per_hour": "25960.4050416224"
            },
            "miss_distance": {
                "astronomical": "0.0506432798",
                "lunar": "19.7002358422",
                "kilometers": "7576126.787894026",
                "miles": "4707586.8922925188"
            },
            "orbiting_body": "Mars"
        },
        {
            "close_approach_date": "2004-10-31",
            "close_approach_date_full": "2004-Oct-31 12:03",
            "epoch_date_close_approach": 1099224180000,
            "relative_velocity": {
                "kilometers_per_second": "14.938191446",
                "kilometers_per_hour": "53777.4892057235",
                "miles_per_hour": "33415.2404456341"
            },
            "miss_distance": {
                "astronomical": "0.0115779195",
                "lunar": "4.5038106855",
                "kilometers": "1732032.096231465",
                "miles": "1076234.838925617"
            },
            "orbiting_body": "Earth"
        },
        {
            "close_approach_date": "2008-05-11",
            "close_approach_date_full": "2008-May-11 00:36",
            "epoch_date_close_approach": 1210466160000,
            "relative_velocity": {
                "kilometers_per_second": "21.2034143843",
                "kilometers_per_hour": "76332.2917834382",
                "miles_per_hour": "47429.9176362147"
            },
            "miss_distance": {
                "astronomical": "0.2062992674",
                "lunar": "80.2504150186",
                "kilometers": "30861930.985600438",
                "miles": "19176714.6783765244"
            },
            "orbiting_body": "Earth"
        }
    ],
    "orbital_data": {
        "orbit_id": "12",
        "orbit_determination_date": "2017-04-06 09:11:54",
        "first_observation_date": "2004-11-04",
        "last_observation_date": "2004-11-13",
        "data_arc_in_days": 9,
        "observations_used": 37,
        "orbit_uncertainty": "8",
        "minimum_orbit_intersection": ".00350668",
        "jupiter_tisserand_invariant": "4.311",
        "epoch_osculation": "2453318.5",
        "eccentricity": ".5266877644487935",
        "semi_major_axis": "1.534376935274055",
        "inclination": "4.580764680679418",
        "ascending_node_longitude": "41.60634052964767",
        "orbital_period": "694.2190376758983",
        "perihelion_distance": ".726239377412772",
        "perihelion_argument": "280.2802356226587",
        "aphelion_distance": "2.342514493135339",
        "perihelion_time": "2453260.880896716259",
        "mean_anomaly": "29.87944158314877",
        "mean_motion": ".5185683198853283",
        "equinox": "J2000",
        "orbit_class": {
            "orbit_class_type": "APO",
            "orbit_class_description": "Near-Earth asteroid orbits which cross the Earth’s orbit similar to that of 1862 Apollo",
            "orbit_class_range": "a (semi-major axis) > 1.0 AU; q (perihelion) < 1.017 AU"
        }
    },
    "is_sentry_object": false
}